OSCAR 7 (AO-7)          
1 07530U 74089B   26197.27011873 -.00000039  00000+0  45074-4 0  9993
2 07530 101.9906 210.8198 0012657  76.3529 349.4249 12.53698595364163
PHASE 3B (AO-10)        
1 14129U 83058B   26194.10401075 -.00000187  00000+0  00000+0 0  9996
2 14129  25.9345 215.2934 6002223 122.7887 309.2966  2.05872336296023
UOSAT 2 (UO-11)         
1 14781U 84021B   26197.41797553  .00000486  00000+0  54959-4 0  9995
2 14781  97.8077 162.6705 0009253  88.1035 272.1243 14.90850498261482
LUSAT (LO-19)           
1 20442U 90005G   26197.34520543  .00000029  00000+0  27108-4 0  9999
2 20442  98.8847 219.9533 0012572 118.2837 241.9617 14.34130921906572
EYESAT A (AO-27)        
1 22825U 93061C   26197.15803350  .00000039  00000+0  31913-4 0  9990
2 22825  98.6867 264.5590 0008708  23.1959 336.9615 14.30949207711144
ITAMSAT (IO-26)         
1 22826U 93061D   26197.47831066  .00000038  00000+0  31007-4 0  9994
2 22826  98.6815 264.7994 0008856   5.6610 354.4672 14.31376879711509
RADIO ROSTO (RS15)      
1 23439U 94085A   26197.56075794 -.00000041  00000+0  52564-4 0  9996
2 23439  64.8148 255.7121 0156969 358.4590   1.5832 11.27583515299217
JAS-2 (FO-29)           
1 24278U 96046B   26197.51458190 -.00000009  00000+0  25869-4 0  9999
2 24278  98.5219  42.3665 0350298  20.5227 340.9595 13.53275767477133
TECHSAT 1B (GO-32)      
1 25397U 98043D   26197.49615008  .00000006  00000+0  22628-4 0  9997
2 25397  99.0086 190.9963 0002221 112.7414 247.3999 14.24433518455501
ISS (ZARYA)             
1 25544U 98067A   26197.34703595  .00003465  00000+0  70975-4 0  9990
2 25544  51.6312 155.7848 0006753 302.1556  57.8777 15.49022210576275
PCSAT (NO-44)           
1 26931U 01043C   26197.28474308  .00000016  00000+0  37045-4 0  9999
2 26931  67.0495 169.0114 0005912 266.7089  93.3336 14.31965226294619
SAUDISAT 1C (SO-50)     
1 27607U 02058C   26197.55521719  .00000354  00000+0  59872-4 0  9993
2 27607  64.5519  38.1171 0074482 257.0171 102.2611 14.83099820268815
CUTE-1 (CO-55)          
1 27844U 03031E   26197.47091366  .00000129  00000+0  74881-4 0  9996
2 27844  98.6744 205.6621 0010849  99.3803 260.8604 14.24352009195844
CUBESAT XI-IV (CO-57)   
1 27848U 03031J   26197.47409145  .00000105  00000+0  65297-4 0  9993
2 27848  98.6775 205.3542 0010587 115.9860 244.2410 14.23634953195546
MOZHAETS 4 (RS22)       
1 27939U 03042A   26197.62080562  .00000261  00000+0  48379-4 0  9996
2 27939  98.3468  22.8125 0011342 168.7838 279.6921 14.73514844219887
CUBESAT XI-V            
1 28895U 05043F   26197.41495073  .00000623  00000+0  10578-3 0  9996
2 28895  98.3016 353.6566 0015289 111.6575 248.6262 14.72703928106051
CUTE-1.7+APD II (CO-65) 
1 32785U 08021C   26197.61287230  .00002406  00000+0  15344-3 0  9991
2 32785  97.8297 179.6522 0006914 293.8449  66.2054 15.09708646989634
SEEDS II (CO-66)        
1 32791U 08021J   26197.50387268  .00010519  00000+0  32533-3 0  9991
2 32791  97.7523 196.8243 0003211 153.5241 206.6165 15.33693982991787
YUBILEINY (RS30)        
1 32953U 08025A   26197.63391708 -.00000019  00000+0 -20754-3 0  9991
2 32953  82.5062 337.1213 0018633 245.6137 114.2999 12.43180523823351
KKS-1 (KISEKI)          
1 33499U 09002H   26197.60369363  .00000565  00000+0  76065-4 0  9993
2 33499  98.1173 120.5120 0007554 184.0960 176.0193 14.83191013940550
SWISSCUBE               
1 35932U 09051B   26197.17712107  .00000443  00000+0  97133-4 0  9995
2 35932  98.4006 105.5678 0007887 116.4429 243.7582 14.62531689893398
BEESAT-1                
1 35933U 09051C   26197.27017215  .00000367  00000+0  83467-4 0  9995
2 35933  98.3933 105.2367 0006190 126.9816 233.1952 14.61762755893439
ITUPSAT1                
1 35935U 09051E   26197.21805450  .00000338  00000+0  79710-4 0  9991
2 35935  98.4016 104.3446 0008155 140.2213 219.9586 14.60479538892971
XIWANG-1 (HOPE-1)       
1 36122U 09072B   26197.57953946 -.00000303  00000+0 -67834-3 0  9993
2 36122 100.4039 150.9444 0007578 161.7426 198.3960 13.16439199796873
O/OREOS (USA 219)       
1 37224U 10062C   26197.46070884  .00000980  00000+0  98139-4 0  9999
2 37224  71.9698  14.0214 0014031   2.6006 357.5235 14.93854221121019
JUGNU                   
1 37839U 11058B   26197.17767124  .00000337  00000+0  36708-4 0  9995
2 37839  19.9596 132.2939 0018592  37.2294  97.4128 14.13783599763133
SRMSAT                  
1 37841U 11058D   26197.50190566  .00000328  00000+0  34086-4 0  9992
2 37841  19.9708 242.0370 0011713 165.5426 335.9764 14.11581255761968
STRAND-1                
1 39090U 13009E   26197.43623745  .00000110  00000+0  51462-4 0  9996
2 39090  98.3935  16.9527 0009468 137.7246 222.4672 14.37179260701268
ZACUBE-1 (TSHEPISOSAT)  
1 39417U 13066B   26197.46763023  .00001130  00000+0  90932-4 0  9997
2 39417  97.8007 159.9484 0044077 151.1384 209.2292 15.01331708685129
GOMX-1                  
1 39430U 13066Q   26197.60108436  .00000649  00000+0  10433-3 0  9990
2 39430  97.6463  36.2075 0128126 343.6834  16.0265 14.69544590674239
